OBJECT_NAME,OBJECT_ID,EPOCH,MEAN_MOTION,ECCENTRICITY,INCLINATION,RA_OF_ASC_NODE,ARG_OF_PERICENTER,MEAN_ANOMALY,EPHEMERIS_TYPE,CLASSIFICATION_TYPE,NORAD_CAT_ID,ELEMENT_SET_NO,REV_AT_EPOCH,BSTAR,MEAN_MOTION_DOT,MEAN_MOTION_DDOT
STARLINK-34083,2025-095U,2026-03-20T19:15:02.432736,15.27584530,.00001104,43.0003,113.7797,260.8892,99.1947,0,U,63908,999,4947,.15920819E-3,.4122E-4,0
STARLINK-34066,2025-095V,2026-03-21T01:11:20.095296,15.27581299,.00013587,43.0002,112.1945,282.8167,77.2532,0,U,63909,999,4951,.11267764E-2,.30875E-3,0
STARLINK-34071,2025-095W,2026-03-20T19:03:56.032992,15.27605305,.00009708,43.0004,113.7210,276.9502,83.1239,0,U,63910,999,4947,.86590348E-3,.2366E-3,0
STARLINK-34038,2025-095X,2026-03-20T18:43:35.008320,15.27582572,.0000775,42.9972,113.6091,279.0938,80.9826,0,U,63911,999,4947,.76614E-3,.20882E-3,0
STARLINK-34031,2025-095Y,2026-03-20T18:49:07.822848,15.27592227,.00011408,42.9999,113.6386,266.3658,93.7064,0,U,63912,999,4947,.58003421E-3,.15739E-3,0
STARLINK-34070,2025-095Z,2026-03-20T18:38:01.944960,15.27589548,.0000606,42.9982,113.5762,270.6901,89.3881,0,U,63913,999,4947,.49865E-3,.13489E-3,0
STARLINK-34068,2025-095AA,2026-03-20T08:58:17.259168,15.27588756,.00013711,42.9996,115.7132,272.9064,87.1631,0,U,63914,999,4941,.55396402E-3,.15017E-3,0
STARLINK-34076,2025-095AB,2026-03-20T10:41:41.763264,15.27587637,.00014165,42.9990,115.3913,271.9339,88.1350,0,U,63915,999,4942,.38938333E-3,.10471E-3,0
STARLINK-33910,2025-095AC,2026-03-20T02:19:27.606720,15.27595949,.00018515,43.0026,117.0734,259.5278,100.5365,0,U,63916,999,4937,.67436691E-3,.1835E-3,0
STARLINK-34075,2025-095AD,2026-03-20T12:01:03.017568,15.27598004,.0001354,42.9978,114.9467,274.2826,85.7871,0,U,63917,999,4943,.69628125E-3,.18958E-3,0
YAOGAN-40 02A,2025-096A,2026-03-21T05:21:04.027392,14.12429737,.00020373,85.9936,227.3652,81.8244,278.3170,0,U,63918,999,4415,.54468184E-4,.119E-5,0
YAOGAN-40 02B,2025-096B,2026-03-21T05:21:21.162240,14.12430643,.00022563,85.9930,227.3419,94.8207,265.3233,0,U,63919,999,4415,.75207468E-4,.158E-5,0
YAOGAN-40 02C,2025-096C,2026-03-21T05:21:10.497888,14.12428959,.0001881,85.9939,226.6100,89.4885,270.6514,0,U,63920,999,6299,.74724766E-4,.157E-5,0
TJS-19,2025-097A,2026-03-20T21:12:07.550208,1.00270178,.0003049,3.4383,316.0365,339.0393,342.6066,0,U,63924,999,325,0,-.277E-5,0
STARLINK-34012,2025-098A,2026-03-21T04:48:53.626752,14.98341956,.00028323,70.0016,245.5537,270.8063,89.2772,0,U,63926,999,4831,.40134598E-3,.47E-4,0
STARLINK-33956,2025-098B,2026-03-21T06:00:02.999808,14.98308909,.0002388,70.0007,245.1479,269.2162,244.9306,0,U,63927,999,581,.37498112E-2,.44911E-3,0
STARLINK-33997,2025-098C,2026-03-20T21:06:15.320736,14.98347822,.00022839,70.0013,246.4317,269.9516,90.1381,0,U,63928,999,4824,.59271748E-3,.6989E-4,0
STARLINK-33989,2025-098D,2026-03-21T04:31:04.990080,14.98324090,.00028662,70.0008,245.5111,269.1193,90.9638,0,U,63929,999,4829,-.89951811E-4,-.1166E-4,0
STARLINK-33980,2025-098E,2026-03-20T21:00:27.542592,14.98073667,.00028619,70.0008,246.4249,264.8446,95.2386,0,U,63930,999,4824,-.53512467E-2,-.62954E-3,0
STARLINK-33994,2025-098F,2026-03-21T04:25:05.509056,14.98340172,.00025918,69.9999,245.4952,270.1500,89.9362,0,U,63931,999,4829,.52281328E-3,.6152E-4,0
STARLINK-33971,2025-098G,2026-03-21T04:55:08.728032,14.98341507,.00025936,70.0011,245.5689,269.8820,90.2042,0,U,63932,999,4829,.41486749E-3,.4862E-4,0
STARLINK-33877,2025-098H,2026-03-21T03:49:01.598592,14.98335278,.00025867,70.0014,245.3950,261.2576,98.8290,0,U,63933,999,4829,.19328487E-3,.2214E-4,0
STARLINK-33895,2025-098J,2026-03-21T06:00:02.999808,14.98296455,.0002807,70.0004,245.2260,266.3364,179.3494,0,U,63934,999,555,.39899127E-2,.47798E-3,0
STARLINK-34005,2025-098K,2026-03-21T06:00:02.999808,14.98307646,.00032593,70.0008,245.4716,269.4953,311.1367,0,U,63935,999,571,.37519797E-2,.44938E-3,0
STARLINK-34027,2025-098L,2026-03-20T21:12:28.087488,14.98339036,.00026865,70.0008,246.0464,270.5572,89.5279,0,U,63936,999,4823,.33809023E-3,.3944E-4,0
STARLINK-34035,2025-098M,2026-03-21T04:19:04.526400,14.98347250,.00032922,69.9997,245.4796,267.9873,92.0909,0,U,63937,999,4827,.62896405E-3,.7423E-4,0
STARLINK-33988,2025-098N,2026-03-21T04:36:57.997152,14.98378605,.00043884,70.0029,245.5244,263.8597,96.2062,0,U,63938,999,4827,.25302255E-2,.30269E-3,0
STARLINK-34020,2025-098P,2026-03-21T06:00:02.999808,14.98307750,.00035006,70.0006,245.2002,267.8757,200.2493,0,U,63939,999,572,.38581877E-2,.46222E-3,0
STARLINK-34021,2025-098Q,2026-03-20T21:06:30.007872,14.98331604,.00031466,70.0006,246.4316,270.4603,89.6196,0,U,63940,999,4822,.39028516E-3,.4567E-4,0
STARLINK-34004,2025-098R,2026-03-21T04:07:03.364608,14.98337706,.00026136,70.0007,245.4429,268.8790,91.2069,0,U,63941,999,4827,.21456257E-3,.2469E-4,0
STARLINK-34014,2025-098S,2026-03-19T04:09:08.011296,14.97810964,.00025152,69.9992,250.5144,216.6154,143.4833,0,U,63942,999,4796,-.1447845E-1,-.16655E-2,0
STARLINK-33985,2025-098T,2026-03-20T21:24:14.956128,14.98339799,.00025735,70.0015,246.0656,277.3243,82.7623,0,U,63943,999,4823,.28425087E-3,.3301E-4,0
STARLINK-33996,2025-098U,2026-03-21T04:37:07.362048,14.98344165,.00029214,70.0002,245.5228,271.3084,88.7740,0,U,63944,999,4827,.47064866E-3,.5529E-4,0
STARLINK-34036,2025-098V,2026-03-21T04:49:08.269824,14.98342508,.00028436,70.0010,245.5523,266.6822,93.4012,0,U,63945,999,4827,.43542899E-3,.5108E-4,0
STARLINK-34039,2025-098W,2026-03-21T06:00:02.999808,14.98311887,.00031424,70.0008,245.4022,266.7910,21.2459,0,U,63946,999,576,.40006864E-2,.47948E-3,0
STARLINK-34034,2025-098X,2026-03-21T04:42:53.115840,14.98341131,.00027079,70.0004,245.5370,268.1800,91.9049,0,U,63947,999,4827,.34349258E-3,.4009E-4,0
STARLINK-33983,2025-098Y,2026-03-21T06:00:02.999808,14.98306701,.00031438,70.0003,245.2763,267.1850,133.5240,0,U,63948,999,577,.38719714E-2,.46386E-3,0
STARLINK-33993,2025-098Z,2026-03-21T03:43:00.783552,14.98341192,.0002605,70.0009,245.3779,271.6415,88.4446,0,U,63949,999,4827,.36992463E-3,.4325E-4,0
STARLINK-33962,2025-098AA,2026-03-21T03:54:47.919168,14.98344615,.00032157,70.0011,245.4155,270.4177,89.6614,0,U,63950,999,4827,.42528311E-3,.4987E-4,0
STARLINK-33998,2025-098AB,2026-03-21T04:00:47.823552,14.98332393,.00032209,69.9999,245.4332,268.7191,91.3599,0,U,63951,999,4827,.1675813E-3,.1907E-4,0
STARLINK-34159,2025-099A,2026-03-20T03:44:32.713152,15.27577422,.0001383,43.0017,117.4065,266.7158,93.3536,0,U,63952,999,4892,.39149655E-3,.10526E-3,0
STARLINK-34137,2025-099B,2026-03-20T19:00:12.155904,15.27596314,.00012206,42.9983,113.5756,276.6011,83.4701,0,U,63953,999,4903,.68218257E-3,.18567E-3,0
STARLINK-33974,2025-099C,2026-03-20T03:55:38.856288,15.27594647,.00011476,42.9999,117.4594,245.2465,114.8268,0,U,63954,999,4893,.40185314E-3,.10817E-3,0
STARLINK-34170,2025-099D,2026-03-20T03:50:06.181728,15.27580928,.00020185,43.0023,117.4341,278.1492,81.9130,0,U,63955,999,4892,.56857692E-3,.15417E-3,0
STARLINK-34187,2025-099E,2026-03-20T03:40:50.714400,15.27590128,.00014756,42.9988,117.3861,289.6537,70.4156,0,U,63956,999,4893,.86031534E-3,.23495E-3,0
STARLINK-34142,2025-099F,2026-03-20T19:16:51.099744,15.27597679,.00017196,43.0028,113.6645,272.4131,87.6524,0,U,63957,999,4903,.5880429E-3,.15963E-3,0
STARLINK-34144,2025-099G,2026-03-20T19:11:18.010464,15.27595887,.00016328,43.0016,113.6346,273.6877,86.3788,0,U,63958,999,4903,.51129114E-3,.13841E-3,0
STARLINK-34099,2025-099H,2026-03-20T03:46:23.830464,15.27583242,.00014459,43.0024,117.4142,268.8640,91.2046,0,U,63959,999,4893,.45930103E-3,.12399E-3,0
STARLINK-34107,2025-099J,2026-03-20T19:05:46.347648,15.27587292,.0001739,42.9993,113.6045,273.6433,86.4220,0,U,63960,999,4903,.11987129E-2,.32879E-3,0
STARLINK-34121,2025-099K,2026-03-21T01:13:07.700448,15.27595626,.00002688,43.0018,112.0761,293.6356,66.4467,0,U,63961,999,4907,.66442593E-3,.18075E-3,0
STARLINK-34103,2025-099L,2026-03-21T01:07:34.560192,15.27596320,.00007673,43.0012,112.0470,263.4656,96.6108,0,U,63962,999,4907,.7236992E-3,.19716E-3,0
STARLINK-33801,2025-099M,2026-03-20T09:14:54.509568,15.27589763,.00012447,42.9990,115.6748,271.1747,88.8962,0,U,63963,999,4897,.37591687E-3,.101E-3,0
STARLINK-34135,2025-099N,2026-03-20T18:45:24.176448,15.27595153,.0000461,42.9948,113.4916,313.2882,46.7931,0,U,63964,999,4903,.72527E-3,.19759E-3,0
STARLINK-34147,2025-099P,2026-03-20T18:34:17.720544,15.27594431,.00016371,42.9999,113.4300,273.0758,86.9906,0,U,63965,999,4903,.62043655E-3,.16858E-3,0
STARLINK-33960,2025-099Q,2026-03-20T02:47:11.065920,15.27593253,.00009336,42.9980,117.0920,262.1637,97.9109,0,U,63966,999,4893,.86371104E-3,.23591E-3,0
STARLINK-34153,2025-099R,2026-03-20T08:54:35.281152,15.27588094,.00014016,43.0000,115.5670,269.2069,90.8622,0,U,63967,999,4897,.67298951E-3,.18308E-3,0
STARLINK-33963,2025-099S,2026-03-20T09:00:06.596640,15.27585541,.00013105,42.9992,115.5971,270.1190,89.9511,0,U,63968,999,4897,.58283919E-3,.15814E-3,0
STARLINK-34112,2025-099T,2026-03-20T08:49:00.140736,15.27589744,.00014028,43.0011,115.5383,268.5799,91.4892,0,U,63969,999,4897,.333669E-3,.8934E-4,0
STARLINK-34084,2025-099U,2026-03-20T04:00:58.913856,15.27589613,.00015699,43.0010,116.6171,263.2377,96.8296,0,U,63970,999,4894,.71441847E-3,.19455E-3,0
STARLINK-34138,2025-099V,2026-03-20T09:26:44.073888,15.27599638,.00027205,43.0023,112.2733,287.9960,72.0596,0,U,63971,999,4901,.85375701E-3,.23321E-3,0
STARLINK-34115,2025-099W,2026-03-20T18:36:50.366880,15.27600147,.00020918,42.9999,109.9829,280.8855,79.1761,0,U,63972,999,4907,.65771381E-3,.17892E-3,0
STARLINK-34028,2025-099X,2026-03-20T19:19:23.874816,15.27596260,.00019017,43.0047,110.2033,281.8700,78.1939,0,U,63973,999,4907,.55419071E-3,.15027E-3,0
STARLINK-33942,2025-099Y,2026-03-20T19:13:50.958336,15.27592029,.00017106,43.0042,110.1738,274.3862,85.6794,0,U,63974,999,4907,.64980659E-3,.17669E-3,0
STARLINK-34139,2025-099Z,2026-03-20T19:08:17.822400,15.27592130,.00019107,43.0015,110.1432,267.4065,92.6568,0,U,63975,999,4898,.53938438E-3,.14616E-3,0
